{"type": "FeatureCollection", "features": [ {"type": "Feature", "properties": {"norad_id": 37867, "name": "COSMOS 2476 (744)", "group": "gnss", "lat": 34.42395256837495, "lon": -119.01051443438367, "alt_km": 19127.926085417774, "timestamp": "2025-12-03T22:42:32.880224+00:00", "meta": {"OBJECT_NAME": "COSMOS 2476 (744)", "OBJECT_ID": "2011-064A", "EPOCH": "2025-12-02T19:57:36.313920", "MEAN_MOTION": 2.13101261, "ECCENTRICITY": 0.00239603, "INCLINATION": 65.1573, "RA_OF_ASC_NODE": 79.5068, "ARG_OF_PERICENTER": 233.4935, "MEAN_ANOMALY": 133.1658, "EPHEMERIS_TYPE": 0, "CLASSIFICATION_TYPE": "U", "NORAD_CAT_ID": 37867, "ELEMENT_SET_NO": 999, "REV_AT_EPOCH": 10958, "BSTAR": 0, "MEAN_MOTION_DOT": -2.2e-07, "MEAN_MOTION_DDOT": 0}, "tle": {"line1": "1 37867U 11064A   25336.83167030 -.00000022  00000+0  00000+0 0  9993", "line2": "2 37867  65.1573  79.5068 0023960 233.4935 133.1658  2.13101261109581"}}, "geometry": {"type": "Point", "coordinates": [-119.01051443438367, 34.42395256837495]}}, {"type": "Feature", "properties": {"norad_id": 37868, "name": "COSMOS 2477 (745)", "group": "gnss", "lat": -33.25656465134026, "lon": 61.895194573943265, "alt_km": 19133.31791255119, "timestamp": "2025-12-03T22:42:32.880246+00:00", "meta": {"OBJECT_NAME": "COSMOS 2477 (745)", "OBJECT_ID": "2011-064B", "EPOCH": "2025-12-01T05:34:43.743072", "MEAN_MOTION": 2.1310269, "ECCENTRICITY": 0.00209845, "INCLINATION": 65.1625, "RA_OF_ASC_NODE": 79.6383, "ARG_OF_PERICENTER": 233.8301, "MEAN_ANOMALY": 166.8442, "EPHEMERIS_TYPE": 0, "CLASSIFICATION_TYPE": "U", "NORAD_CAT_ID": 37868, "ELEMENT_SET_NO": 999, "REV_AT_EPOCH": 10954, "BSTAR": 0, "MEAN_MOTION_DOT": -1.2e-07, "MEAN_MOTION_DDOT": 0}, "tle": {"line1": "1 37868U 11064B   25335.23245073 -.00000012  00000+0  00000+0 0  9990", "line2": "2 37868  65.1625  79.6383 0020984 233.8301 166.8442  2.13102690109542"}}, "geometry": {"type": "Point", "coordinates": [61.895194573943265, -33.25656465134026]}}, {"type": "Feature", "properties": {"norad_id": 37869, "name": "COSMOS 2475 (743)", "group": "gnss", "lat": -63.785838949335655, "lon": 9.712889437770649, "alt_km": 19079.44288361891, "timestamp": "2025-12-03T22:42:32.880257+00:00", "meta": {"OBJECT_NAME": "COSMOS 2475 (743)", "OBJECT_ID": "2011-064C", "EPOCH": "2025-12-01T05:41:50.555616", "MEAN_MOTION": 2.13101369, "ECCENTRICITY": 0.00260135, "INCLINATION": 65.1695, "RA_OF_ASC_NODE": 79.658, "ARG_OF_PERICENTER": 248.1873, "MEAN_ANOMALY": 112.2788, "EPHEMERIS_TYPE": 0, "CLASSIFICATION_TYPE": "U", "NORAD_CAT_ID": 37869, "ELEMENT_SET_NO": 999, "REV_AT_EPOCH": 10955, "BSTAR": 0, "MEAN_MOTION_DOT": -1.2e-07, "MEAN_MOTION_DDOT": 0}, "tle": {"line1": "1 37869U 11064C   25335.23739069 -.00000012  00000+0  00000+0 0  9994", "line2": "2 37869  65.1695  79.6580 0026013 248.1873 112.2788  2.13101369109552"}}, "geometry": {"type": "Point", "coordinates": [9.712889437770649, -63.785838949335655]}}, {"type": "Feature", "properties": {"norad_id": 37948, "name": "BEIDOU-2 IGSO-5 (C10)", "group": "gnss", "lat": -36.11660987362, "lon": 134.8574440866266, "alt_km": 35327.25406443322, "timestamp": "2025-12-03T22:42:32.880268+00:00", "meta": {"OBJECT_NAME": "BEIDOU-2 IGSO-5 (C10)", "OBJECT_ID": "2011-073A", "EPOCH": "2025-12-02T19:23:39.606720", "MEAN_MOTION": 1.00292511, "ECCENTRICITY": 0.01107055, "INCLINATION": 48.0402, "RA_OF_ASC_NODE": 273.9813, "ARG_OF_PERICENTER": 222.1881, "MEAN_ANOMALY": 319.0044, "EPHEMERIS_TYPE": 0, "CLASSIFICATION_TYPE": "U", "NORAD_CAT_ID": 37948, "ELEMENT_SET_NO": 999, "REV_AT_EPOCH": 5116, "BSTAR": 0, "MEAN_MOTION_DOT": -1.77e-06, "MEAN_MOTION_DDOT": 0}, "tle": {"line1": "1 37948U 11073A   25336.80809730 -.00000177  00000+0  00000+0 0  9991", "line2": "2 37948  48.0402 273.9813 0110705 222.1881 319.0044  1.00292511 51167"}}, "geometry": {"type": "Point", "coordinates": [134.8574440866266, -36.11660987362]}}, {"type": "Feature", "properties": {"norad_id": 37951, "name": "LUCH 5A (SDCM/PRN 140)", "group": "gnss", "lat": 4.8303737349260105, "lon": -139.11162022383215, "alt_km": 35763.393389567376, "timestamp": "2025-12-03T22:42:32.880279+00:00", "meta": {"OBJECT_NAME": "LUCH 5A (SDCM/PRN 140)", "OBJECT_ID": "2011-074B", "EPOCH": "2025-12-03T02:33:47.305728", "MEAN_MOTION": 1.00273309, "ECCENTRICITY": 0.0005887, "INCLINATION": 8.2536, "RA_OF_ASC_NODE": 76.7272, "ARG_OF_PERICENTER": 173.7841, "MEAN_ANOMALY": 27.1144, "EPHEMERIS_TYPE": 0, "CLASSIFICATION_TYPE": "U", "NORAD_CAT_ID": 37951, "ELEMENT_SET_NO": 999, "REV_AT_EPOCH": 5108, "BSTAR": 0, "MEAN_MOTION_DOT": -3.4e-07, "MEAN_MOTION_DDOT": 0}, "tle": {"line1": "1 37951U 11074B   25337.10679752 -.00000034  00000+0  00000+0 0  9991", "line2": "2 37951   8.2536  76.7272 0005887 173.7841  27.1144  1.00273309 51089"}}, "geometry": {"type": "Point", "coordinates": [-139.11162022383215, 4.8303737349260105]}}, {"type": "Feature", "properties": {"norad_id": 38091, "name": "BEIDOU-2 G5 (C05)", "group": "gnss", "lat": 2.0637264792284844, "lon": 112.31641162241252, "alt_km": 35837.47128441019, "timestamp": "2025-12-03T22:42:32.880292+00:00", "meta": {"OBJECT_NAME": "BEIDOU-2 G5 (C05)", "OBJECT_ID": "2012-008A", "EPOCH": "2025-12-03T12:13:51.619008", "MEAN_MOTION": 1.00272325, "ECCENTRICITY": 0.0012325, "INCLINATION": 3.0845, "RA_OF_ASC_NODE": 70.7341, "ARG_OF_PERICENTER": 225.5074, "MEAN_ANOMALY": 18.5234, "EPHEMERIS_TYPE": 0, "CLASSIFICATION_TYPE": "U", "NORAD_CAT_ID": 38091, "ELEMENT_SET_NO": 999, "REV_AT_EPOCH": 5040, "BSTAR": 0, "MEAN_MOTION_DOT": 7.4e-07, "MEAN_MOTION_DDOT": 0}, "tle": {"line1": "1 38091U 12008A   25337.50962522  .00000074  00000+0  00000+0 0  9992", "line2": "2 38091   3.0845  70.7341 0012325 225.5074  18.5234  1.00272325 50407"}}, "geometry": {"type": "Point", "coordinates": [112.31641162241252, 2.0637264792284844]}}, {"type": "Feature", "properties": {"norad_id": 38250, "name": "BEIDOU-2 M3 (C11)", "group": "gnss", "lat": 31.73478972014715, "lon": 106.6981177564096, "alt_km": 21570.95749038857, "timestamp": "2025-12-03T22:42:32.880303+00:00", "meta": {"OBJECT_NAME": "BEIDOU-2 M3 (C11)", "OBJECT_ID": "2012-018A", "EPOCH": "2025-12-01T01:13:35.126400", "MEAN_MOTION": 1.86229725, "ECCENTRICITY": 0.00245382, "INCLINATION": 55.9302, "RA_OF_ASC_NODE": 311.5507, "ARG_OF_PERICENTER": 273.3676, "MEAN_ANOMALY": 86.348, "EPHEMERIS_TYPE": 0, "CLASSIFICATION_TYPE": "U", "NORAD_CAT_ID": 38250, "ELEMENT_SET_NO": 999, "REV_AT_EPOCH": 9225, "BSTAR": 0, "MEAN_MOTION_DOT": -5.3e-07, "MEAN_MOTION_DDOT": 0}, "tle": {"line1": "1 38250U 12018A   25335.05110100 -.00000053  00000+0  00000+0 0  9993", "line2": "2 38250  55.9302 311.5507 0024538 273.3676  86.3480  1.86229725 92251"}}, "geometry": {"type": "Point", "coordinates": [106.6981177564096, 31.73478972014715]}}, {"type": "Feature", "properties": {"norad_id": 38251, "name": "BEIDOU-2 M4 (C12)", "group": "gnss", "lat": -5.1853682750942065, "lon": 134.19654850707838, "alt_km": 21529.316697835475, "timestamp": "2025-12-03T22:42:32.880313+00:00", "meta": {"OBJECT_NAME": "BEIDOU-2 M4 (C12)", "OBJECT_ID": "2012-018B", "EPOCH": "2025-11-30T23:35:43.237248", "MEAN_MOTION": 1.86229405, "ECCENTRICITY": 0.00156645, "INCLINATION": 55.8317, "RA_OF_ASC_NODE": 310.7829, "ARG_OF_PERICENTER": 276.4205, "MEAN_ANOMALY": 83.3972, "EPHEMERIS_TYPE": 0, "CLASSIFICATION_TYPE": "U", "NORAD_CAT_ID": 38251, "ELEMENT_SET_NO": 999, "REV_AT_EPOCH": 9225, "BSTAR": 0, "MEAN_MOTION_DOT": -5.3e-07, "MEAN_MOTION_DDOT": 0}, "tle": {"line1": "1 38251U 12018B   25334.98313932 -.00000053  00000+0  00000+0 0  9993", "line2": "2 38251  55.8317 310.7829 0015664 276.4205  83.3972  1.86229405 92255"}}, "geometry": {"type": "Point", "coordinates": [134.19654850707838, -5.1853682750942065]}}, {"type": "Feature", "properties": {"norad_id": 38652, "name": "SES-5 (EGNOS/PRN 136)", "group": "gnss", "lat": 0.07741895416339682, "lon": 58.632232817485246, "alt_km": 35795.14872401163, "timestamp": "2025-12-03T22:42:32.880324+00:00", "meta": {"OBJECT_NAME": "SES-5 (EGNOS/PRN 136)", "OBJECT_ID": "2012-036A", "EPOCH": "2025-12-03T06:55:48.578880", "MEAN_MOTION": 1.0027114, "ECCENTRICITY": 0.0002144, "INCLINATION": 0.0592, "RA_OF_ASC_NODE": 303.2756, "ARG_OF_PERICENTER": 305.781, "MEAN_ANOMALY": 292.2636, "EPHEMERIS_TYPE": 0, "CLASSIFICATION_TYPE": "U", "NORAD_CAT_ID": 38652, "ELEMENT_SET_NO": 999, "REV_AT_EPOCH": 4250, "BSTAR": 0, "MEAN_MOTION_DOT": 5.3e-07, "MEAN_MOTION_DDOT": 0}, "tle": {"line1": "1 38652U 12036A   25337.28875670  .00000053  00000+0  00000+0 0  9995", "line2": "2 38652   0.0592 303.2756 0002144 305.7810 292.2636  1.00271140 42500"}}, "geometry": {"type": "Point", "coordinates": [58.632232817485246, 0.07741895416339682]}}, {"type": "Feature", "properties": {"norad_id": 38775, "name": "BEIDOU-2 M6 (C14)", "group": "gnss", "lat": 16.8858847799351, "lon": 80.9989471286619, "alt_km": 21500.929173565586, "timestamp": "2025-12-03T22:42:32.880334+00:00", "meta": {"OBJECT_NAME": "BEIDOU-2 M6 (C14)", "OBJECT_ID": "2012-050B", "EPOCH": "2025-12-02T20:12:21.765312", "MEAN_MOTION": 1.86230699, "ECCENTRICITY": 0.0010891, "INCLINATION": 56.3701, "RA_OF_ASC_NODE": 69.396, "ARG_OF_PERICENTER": 346.3051, "MEAN_ANOMALY": 13.6678, "EPHEMERIS_TYPE": 0, "CLASSIFICATION_TYPE": "U", "NORAD_CAT_ID": 38775, "ELEMENT_SET_NO": 999, "REV_AT_EPOCH": 8965, "BSTAR": 0, "MEAN_MOTION_DOT": -4.8e-07, "MEAN_MOTION_DDOT": 0}, "tle": {"line1": "1 38775U 12050B   25336.84191858 -.00000048  00000+0  00000+0 0  9992", "line2": "2 38775  56.3701  69.3960 0010891 346.3051  13.6678  1.86230699 89651"}}, "geometry": {"type": "Point", "coordinates": [80.9989471286619, 16.8858847799351]}}]}